{"fetched_at":"2026-07-22T07:09:47.414Z","source":"https://celestrak.org/NORAD/elements/gp.php?NAME=HULIANWANG&FORMAT=JSON","constellation":"guowang","records":[{"OBJECT_NAME":"HULIANWANG DIGUI-108","OBJECT_ID":"2025-285D","EPOCH":"2026-07-20T21:45:18.656352","CLASSIFICATION_TYPE":"U","MEAN_MOTION":13.29326008,"ECCENTRICITY":0.0000928,"INCLINATION":50.0062,"RA_OF_ASC_NODE":25.0631,"ARG_OF_PERICENTER":59.108,"MEAN_ANOMALY":300.9883,"EPHEMERIS_TYPE":0,"NORAD_CAT_ID":66918,"ELEMENT_SET_NO":999,"REV_AT_EPOCH":3054,"BSTAR":-0.000006899122,"MEAN_MOTION_DOT":-0.00000127,"MEAN_MOTION_DDOT":0},{"OBJECT_NAME":"HULIANWANG DIGUI-109","OBJECT_ID":"2025-285E","EPOCH":"2026-07-20T23:21:25.941888","CLASSIFICATION_TYPE":"U","MEAN_MOTION":13.29316729,"ECCENTRICITY":0.00008926,"INCLINATION":50.0087,"RA_OF_ASC_NODE":24.7955,"ARG_OF_PERICENTER":67.9317,"MEAN_ANOMALY":292.165,"EPHEMERIS_TYPE":0,"NORAD_CAT_ID":66919,"ELEMENT_SET_NO":999,"REV_AT_EPOCH":3056,"BSTAR":0.000008579587,"MEAN_MOTION_DOT":-0.0000012,"MEAN_MOTION_DDOT":0},{"OBJECT_NAME":"HULIANWANG DIGUI-110","OBJECT_ID":"2025-285F","EPOCH":"2026-07-21T04:34:20.729280","CLASSIFICATION_TYPE":"U","MEAN_MOTION":13.2932652,"ECCENTRICITY":0.00008709,"INCLINATION":50.012,"RA_OF_ASC_NODE":24.002,"ARG_OF_PERICENTER":60.1602,"MEAN_ANOMALY":299.9357,"EPHEMERIS_TYPE":0,"NORAD_CAT_ID":66920,"ELEMENT_SET_NO":999,"REV_AT_EPOCH":3058,"BSTAR":0.000005693686,"MEAN_MOTION_DOT":-0.00000121,"MEAN_MOTION_DDOT":0},{"OBJECT_NAME":"HULIANWANG DIGUI-111","OBJECT_ID":"2025-285G","EPOCH":"2026-07-21T11:35:24.332928","CLASSIFICATION_TYPE":"U","MEAN_MOTION":13.29326093,"ECCENTRICITY":0.00008877,"INCLINATION":50.0134,"RA_OF_ASC_NODE":22.9108,"ARG_OF_PERICENTER":61.0671,"MEAN_ANOMALY":299.029,"EPHEMERIS_TYPE":0,"NORAD_CAT_ID":66921,"ELEMENT_SET_NO":999,"REV_AT_EPOCH":3062,"BSTAR":0.000042832337,"MEAN_MOTION_DOT":-0.00000104,"MEAN_MOTION_DDOT":0},{"OBJECT_NAME":"HULIANWANG DIGUI-112","OBJECT_ID":"2025-285H","EPOCH":"2026-07-21T13:11:34.427328","CLASSIFICATION_TYPE":"U","MEAN_MOTION":13.29325932,"ECCENTRICITY":0.00009398,"INCLINATION":50.0099,"RA_OF_ASC_NODE":22.532,"ARG_OF_PERICENTER":57.9719,"MEAN_ANOMALY":302.1245,"EPHEMERIS_TYPE":0,"NORAD_CAT_ID":66922,"ELEMENT_SET_NO":999,"REV_AT_EPOCH":3063,"BSTAR":0.000008070096,"MEAN_MOTION_DOT":-0.0000012,"MEAN_MOTION_DDOT":0},{"OBJECT_NAME":"HULIANWANG DIGUI-113","OBJECT_ID":"2025-285J","EPOCH":"2026-07-21T12:59:42.356544","CLASSIFICATION_TYPE":"U","MEAN_MOTION":13.2932443,"ECCENTRICITY":0.00009411,"INCLINATION":50.0108,"RA_OF_ASC_NODE":22.5062,"ARG_OF_PERICENTER":57.4403,"MEAN_ANOMALY":302.656,"EPHEMERIS_TYPE":0,"NORAD_CAT_ID":66923,"ELEMENT_SET_NO":999,"REV_AT_EPOCH":3063,"BSTAR":0.00002349258,"MEAN_MOTION_DOT":-0.00000113,"MEAN_MOTION_DDOT":0},{"OBJECT_NAME":"HULIANWANG DIGUI-114","OBJECT_ID":"2025-287A","EPOCH":"2026-07-21T14:12:10.005408","CLASSIFICATION_TYPE":"U","MEAN_MOTION":13.24413762,"ECCENTRICITY":0.00022566,"INCLINATION":86.4922,"RA_OF_ASC_NODE":270.7417,"ARG_OF_PERICENTER":95.7401,"MEAN_ANOMALY":264.399,"EPHEMERIS_TYPE":0,"NORAD_CAT_ID":66953,"ELEMENT_SET_NO":999,"REV_AT_EPOCH":2989,"BSTAR":0.000075575612,"MEAN_MOTION_DOT":4.7e-7,"MEAN_MOTION_DDOT":0},{"OBJECT_NAME":"HULIANWANG DIGUI-115","OBJECT_ID":"2025-287B","EPOCH":"2026-07-21T06:45:46.462464","CLASSIFICATION_TYPE":"U","MEAN_MOTION":13.24401159,"ECCENTRICITY":0.00025132,"INCLINATION":86.4938,"RA_OF_ASC_NODE":270.8766,"ARG_OF_PERICENTER":92.55,"MEAN_ANOMALY":267.5922,"EPHEMERIS_TYPE":0,"NORAD_CAT_ID":66954,"ELEMENT_SET_NO":999,"REV_AT_EPOCH":2985,"BSTAR":0.000048257894,"MEAN_MOTION_DOT":3.5e-7,"MEAN_MOTION_DDOT":0},{"OBJECT_NAME":"HULIANWANG DIGUI-116","OBJECT_ID":"2025-287C","EPOCH":"2026-07-21T10:12:50.438592","CLASSIFICATION_TYPE":"U","MEAN_MOTION":13.24413382,"ECCENTRICITY":0.00023258,"INCLINATION":86.4878,"RA_OF_ASC_NODE":270.685,"ARG_OF_PERICENTER":93.41,"MEAN_ANOMALY":266.7301,"EPHEMERIS_TYPE":0,"NORAD_CAT_ID":66955,"ELEMENT_SET_NO":999,"REV_AT_EPOCH":2987,"BSTAR":0.00003119996,"MEAN_MOTION_DOT":2.8e-7,"MEAN_MOTION_DDOT":0},{"OBJECT_NAME":"HULIANWANG DIGUI-117","OBJECT_ID":"2025-287D","EPOCH":"2026-07-21T10:02:00.624192","CLASSIFICATION_TYPE":"U","MEAN_MOTION":13.24413065,"ECCENTRICITY":0.00007552,"INCLINATION":86.4939,"RA_OF_ASC_NODE":270.8198,"ARG_OF_PERICENTER":76.8678,"MEAN_ANOMALY":283.2541,"EPHEMERIS_TYPE":0,"NORAD_CAT_ID":66956,"ELEMENT_SET_NO":999,"REV_AT_EPOCH":2987,"BSTAR":0.000005768515,"MEAN_MOTION_DOT":1.7e-7,"MEAN_MOTION_DDOT":0},{"OBJECT_NAME":"HULIANWANG DIGUI-118","OBJECT_ID":"2025-287E","EPOCH":"2026-07-21T15:17:29.299488","CLASSIFICATION_TYPE":"U","MEAN_MOTION":13.24412542,"ECCENTRICITY":0.00023038,"INCLINATION":86.4914,"RA_OF_ASC_NODE":270.6851,"ARG_OF_PERICENTER":95.1993,"MEAN_ANOMALY":264.9404,"EPHEMERIS_TYPE":0,"NORAD_CAT_ID":66957,"ELEMENT_SET_NO":999,"REV_AT_EPOCH":2990,"BSTAR":-0.000005084958,"MEAN_MOTION_DOT":1.2e-7,"MEAN_MOTION_DDOT":0},{"OBJECT_NAME":"HULIANWANG DIGUI-119","OBJECT_ID":"2025-295A","EPOCH":"2026-07-21T10:31:12.691776","CLASSIFICATION_TYPE":"U","MEAN_MOTION":13.29324936,"ECCENTRICITY":0.00011218,"INCLINATION":50.0028,"RA_OF_ASC_NODE":262.9408,"ARG_OF_PERICENTER":214.9432,"MEAN_ANOMALY":145.1367,"EPHEMERIS_TYPE":0,"NORAD_CAT_ID":67059,"ELEMENT_SET_NO":999,"REV_AT_EPOCH":3005,"BSTAR":0.000067391786,"MEAN_MOTION_DOT":-9.3e-7,"MEAN_MOTION_DDOT":0},{"OBJECT_NAME":"HULIANWANG DIGUI-120","OBJECT_ID":"2025-295B","EPOCH":"2026-07-21T13:43:41.158560","CLASSIFICATION_TYPE":"U","MEAN_MOTION":13.29324903,"ECCENTRICITY":0.00011748,"INCLINATION":50.0034,"RA_OF_ASC_NODE":262.325,"ARG_OF_PERICENTER":216.2714,"MEAN_ANOMALY":143.8079,"EPHEMERIS_TYPE":0,"NORAD_CAT_ID":67060,"ELEMENT_SET_NO":999,"REV_AT_EPOCH":3007,"BSTAR":0.000062601042,"MEAN_MOTION_DOT":-9.5e-7,"MEAN_MOTION_DDOT":0},{"OBJECT_NAME":"HULIANWANG DIGUI-121","OBJECT_ID":"2025-295C","EPOCH":"2026-07-21T12:07:26.301792","CLASSIFICATION_TYPE":"U","MEAN_MOTION":13.2932622,"ECCENTRICITY":0.00011588,"INCLINATION":49.9995,"RA_OF_ASC_NODE":262.5623,"ARG_OF_PERICENTER":213.8596,"MEAN_ANOMALY":146.2202,"EPHEMERIS_TYPE":0,"NORAD_CAT_ID":67061,"ELEMENT_SET_NO":999,"REV_AT_EPOCH":3006,"BSTAR":0.000067341748,"MEAN_MOTION_DOT":-9.3e-7,"MEAN_MOTION_DDOT":0},{"OBJECT_NAME":"HULIANWANG DIGUI-122","OBJECT_ID":"2025-295D","EPOCH":"2026-07-21T09:55:01.614432","CLASSIFICATION_TYPE":"U","MEAN_MOTION":13.29324827,"ECCENTRICITY":0.00011613,"INCLINATION":50.0029,"RA_OF_ASC_NODE":262.8104,"ARG_OF_PERICENTER":213.3173,"MEAN_ANOMALY":146.7627,"EPHEMERIS_TYPE":0,"NORAD_CAT_ID":67062,"ELEMENT_SET_NO":999,"REV_AT_EPOCH":3005,"BSTAR":0.000055460389,"MEAN_MOTION_DOT":-9.8e-7,"MEAN_MOTION_DDOT":0},{"OBJECT_NAME":"HULIANWANG DIGUI-123","OBJECT_ID":"2025-295E","EPOCH":"2026-07-21T07:54:49.453056","CLASSIFICATION_TYPE":"U","MEAN_MOTION":13.29324422,"ECCENTRICITY":0.00010782,"INCLINATION":50.0029,"RA_OF_ASC_NODE":263.0404,"ARG_OF_PERICENTER":214.6466,"MEAN_ANOMALY":145.4336,"EPHEMERIS_TYPE":0,"NORAD_CAT_ID":67063,"ELEMENT_SET_NO":999,"REV_AT_EPOCH":3004,"BSTAR":0.000051370448,"MEAN_MOTION_DOT":-0.000001,"MEAN_MOTION_DDOT":0}]}
