{"epoch":1784710044,"count":18256,"objects":[{"id":"66918","name":"HULIANWANG DIGUI-108","type":"PAYLOAD","l1":"1 66918U 25285D   26201.90646593 -.00000127  00000-0 -68991-5 0  9995","l2":"2 66918  50.0062  25.0631 0000928  59.1080 300.9883 13.29326008 30541"},{"id":"66919","name":"HULIANWANG DIGUI-109","type":"PAYLOAD","l1":"1 66919U 25285E   26201.97321692 -.00000120  00000-0  85796-5 0  9997","l2":"2 66919  50.0087  24.7955 0000893  67.9317 292.1650 13.29316729 30560"},{"id":"66920","name":"HULIANWANG DIGUI-110","type":"PAYLOAD","l1":"1 66920U 25285F   26202.19051770 -.00000121  00000-0  56937-5 0  9997","l2":"2 66920  50.0120  24.0020 0000871  60.1602 299.9357 13.29326520 30585"},{"id":"66921","name":"HULIANWANG DIGUI-111","type":"PAYLOAD","l1":"1 66921U 25285G   26202.48292052 -.00000104  00000-0  42832-4 0  9999","l2":"2 66921  50.0134  22.9108 0000888  61.0671 299.0290 13.29326093 30626"},{"id":"66922","name":"HULIANWANG DIGUI-112","type":"PAYLOAD","l1":"1 66922U 25285H   26202.54970402 -.00000120  00000-0  80701-5 0  9995","l2":"2 66922  50.0099  22.5320 0000940  57.9719 302.1245 13.29325932 30633"},{"id":"66923","name":"HULIANWANG DIGUI-113","type":"PAYLOAD","l1":"1 66923U 25285J   26202.54146246 -.00000113  00000-0  23493-4 0  9993","l2":"2 66923  50.0108  22.5062 0000941  57.4403 302.6560 13.29324430 30631"},{"id":"66953","name":"HULIANWANG DIGUI-114","type":"PAYLOAD","l1":"1 66953U 25287A   26202.59178247  .00000047  00000-0  75576-4 0  9993","l2":"2 66953  86.4922 270.7417 0002257  95.7401 264.3990 13.24413762 29896"},{"id":"66954","name":"HULIANWANG DIGUI-115","type":"PAYLOAD","l1":"1 66954U 25287B   26202.28178776  .00000035  00000-0  48258-4 0  9991","l2":"2 66954  86.4938 270.8766 0002513  92.5500 267.5922 13.24401159 29855"},{"id":"66955","name":"HULIANWANG DIGUI-116","type":"PAYLOAD","l1":"1 66955U 25287C   26202.42558378  .00000028  00000-0  31200-4 0  9999","l2":"2 66955  86.4878 270.6850 0002326  93.4100 266.7301 13.24413382 29874"},{"id":"66956","name":"HULIANWANG DIGUI-117","type":"PAYLOAD","l1":"1 66956U 25287D   26202.41806278  .00000017  00000-0  57685-5 0  9998","l2":"2 66956  86.4939 270.8198 0000755  76.8678 283.2541 13.24413065 29877"},{"id":"66957","name":"HULIANWANG DIGUI-118","type":"PAYLOAD","l1":"1 66957U 25287E   26202.63714467  .00000012  00000-0 -50850-5 0  9994","l2":"2 66957  86.4914 270.6851 0002304  95.1993 264.9404 13.24412542 29908"},{"id":"67059","name":"HULIANWANG DIGUI-119","type":"PAYLOAD","l1":"1 67059U 25295A   26202.43834134 -.00000093  00000-0  67392-4 0  9996","l2":"2 67059  50.0028 262.9408 0001122 214.9432 145.1367 13.29324936 30053"},{"id":"67060","name":"HULIANWANG DIGUI-120","type":"PAYLOAD","l1":"1 67060U 25295B   26202.57200415 -.00000095  00000-0  62601-4 0  9992","l2":"2 67060  50.0034 262.3250 0001175 216.2714 143.8079 13.29324903 30078"},{"id":"67061","name":"HULIANWANG DIGUI-121","type":"PAYLOAD","l1":"1 67061U 25295C   26202.50516553 -.00000093  00000-0  67342-4 0  9994","l2":"2 67061  49.9995 262.5623 0001159 213.8596 146.2202 13.29326220 30069"},{"id":"67062","name":"HULIANWANG DIGUI-122","type":"PAYLOAD","l1":"1 67062U 25295D   26202.41321313 -.00000098  00000-0  55460-4 0  9996","l2":"2 67062  50.0029 262.8104 0001161 213.3173 146.7627 13.29324827 30053"},{"id":"67063","name":"HULIANWANG DIGUI-123","type":"PAYLOAD","l1":"1 67063U 25295E   26202.32973904 -.00000100  00000-0  51370-4 0  9996","l2":"2 67063  50.0029 263.0404 0001078 214.6466 145.4336 13.29324422 30049"}]}